ADRAS-J                 
1 58992U 24034A   24269.46339527  .00008590  00000+0  76657-3 0  9993
2 58992  98.2236 247.1850 0045047  79.3052 281.3235 14.95438083 32844
